[
    {
        "Altitude(m)": 607895.7822282222,
        "Argument of Periapsis(deg)": 0.0,
        "Eccentricity": 0.0,
        "Inclination(deg)": 60.0,
        "Latitude(deg)": 40.998244365430764,
        "Longitude(deg)": -99.91132473098456,
        "Mean Anomaly(deg)": 130.9091,
        "RAAN(deg)": 210.0,
        "Satellite Name": "Test1 932",
        "Satellite Number": 932,
        "Semi-Major Axis(m)": 6980739.136638005,
        "Time(s)": 0
    },
    {
        "Altitude(m)": 607795.0950495264,
        "Argument of Periapsis(deg)": 0.00010418945913296404,
        "Eccentricity": 0.0,
        "Inclination(deg)": 60.0,
        "Latitude(deg)": 40.530568320345154,
        "Longitude(deg)": -99.41473208375214,
        "Mean Anomaly(deg)": 131.52920614546187,
        "RAAN(deg)": 209.99957995086027,
        "Satellite Name": "Test1 932",
        "Satellite Number": 932,
        "Semi-Major Axis(m)": 6980739.136638005,
        "Time(s)": 10
    }
]